{"type":"FeatureCollection","features":[{"type":"Feature","properties":{"name":"United Arab Emirates","side":"gulf"},"geometry":{"type":"MultiPolygon","coordinates":[[[[56.299,25.65],[56.364,25.57],[56.371,25.018],[56.389,24.98],[56.353,24.973],[56.314,24.931],[56.267,24.867],[56.206,24.834],[56.155,24.796],[56.105,24.749],[56.065,24.739],[56.008,24.798],[55.972,24.858],[55.979,24.872],[56.008,24.876],[56.018,24.907],[56,24.954],[55.964,24.97],[55.918,24.971],[55.871,24.952],[55.824,24.911],[55.795,24.869],[55.792,24.782],[55.806,24.683],[55.802,24.636],[55.777,24.577],[55.77,24.49],[55.788,24.423],[55.802,24.383],[55.806,24.35],[55.759,24.242],[55.799,24.223],[55.928,24.214],[55.968,24.143],[55.993,24.093],[55.986,24.063],[55.892,24.041],[55.781,24.016],[55.698,24.023],[55.547,23.992],[55.468,23.942],[55.493,23.909],[55.518,23.886],[55.532,23.819],[55.507,23.725],[55.468,23.633],[55.414,23.518],[55.352,23.388],[55.27,23.19],[55.201,23.034],[55.194,22.923],[55.194,22.85],[55.187,22.704],[55.118,22.624],[55.104,22.621],[55.025,22.631],[55,22.635],[54.924,22.643],[54.805,22.657],[54.654,22.676],[54.47,22.699],[54.269,22.723],[54.056,22.749],[53.833,22.777],[53.61,22.805],[53.394,22.831],[53.192,22.855],[53.012,22.878],[52.858,22.895],[52.742,22.911],[52.667,22.919],[52.638,22.923],[52.555,22.933],[52.508,22.987],[52.454,23.053],[52.4,23.117],[52.346,23.183],[52.289,23.249],[52.235,23.315],[52.181,23.379],[52.123,23.445],[52.069,23.511],[52.015,23.577],[51.961,23.642],[51.904,23.707],[51.85,23.773],[51.796,23.838],[51.738,23.904],[51.684,23.97],[51.63,24.036],[51.594,24.079],[51.572,24.128],[51.569,24.258],[51.569,24.286],[51.605,24.338],[51.623,24.301],[51.666,24.251],[51.734,24.263],[51.767,24.254],[51.792,24.076],[51.842,24.011],[51.907,23.985],[52.12,23.971],[52.249,23.996],[52.512,24.112],[52.649,24.155],[53.027,24.147],[53.329,24.098],[53.801,24.07],[53.894,24.077],[54.146,24.171],[54.305,24.254],[54.398,24.279],[54.46,24.358],[54.499,24.463],[54.535,24.53],[54.582,24.563],[54.625,24.621],[54.658,24.716],[54.748,24.81],[55.097,25.041],[55.302,25.237],[55.32,25.299],[55.435,25.395],[55.522,25.497],[55.943,25.794],[56.026,25.916],[56.076,26.053],[56.08,26.063],[56.116,26.068],[56.166,26.048],[56.173,25.945],[56.155,25.848],[56.152,25.746],[56.144,25.69],[56.184,25.645],[56.249,25.626],[56.278,25.628],[56.299,25.65]],[[56.281,25.235],[56.288,25.279],[56.278,25.301],[56.234,25.305],[56.216,25.266],[56.209,25.213],[56.242,25.209],[56.281,25.235]]],[[[53.333,24.258],[53.257,24.253],[53.192,24.291],[53.333,24.341],[53.372,24.364],[53.412,24.411],[53.444,24.371],[53.408,24.308],[53.383,24.28],[53.333,24.258]]],[[[52.616,24.289],[52.598,24.282],[52.584,24.336],[52.584,24.352],[52.631,24.378],[52.656,24.332],[52.616,24.289]]],[[[53.927,24.178],[53.927,24.143],[53.826,24.154],[53.801,24.136],[53.714,24.145],[53.635,24.169],[53.689,24.211],[53.833,24.26],[53.894,24.214],[53.927,24.178]]],[[[54.467,24.444],[54.456,24.423],[54.427,24.424],[54.359,24.444],[54.334,24.471],[54.38,24.504],[54.398,24.506],[54.427,24.471],[54.467,24.444]]]]}},{"type":"Feature","properties":{"name":"Turkey","side":"gulf"},"geometry":{"type":"MultiPolygon","coordinates":[[[[25.969,40.137],[25.738,40.106],[25.67,40.135],[25.742,40.196],[25.875,40.234],[25.918,40.238],[25.976,40.179],[25.969,40.137]]],[[[41.51,41.517],[41.575,41.498],[41.701,41.472],[41.78,41.441],[41.823,41.432],[41.924,41.496],[42.079,41.495],[42.212,41.486],[42.281,41.475],[42.363,41.455],[42.468,41.439],[42.507,41.47],[42.569,41.559],[42.59,41.571],[42.608,41.58],[42.684,41.587],[42.756,41.58],[42.788,41.564],[42.821,41.493],[42.907,41.467],[43.058,41.352],[43.148,41.307],[43.17,41.288],[43.141,41.265],[43.152,41.236],[43.206,41.199],[43.278,41.186],[43.361,41.191],[43.404,41.177],[43.433,41.156],[43.44,41.127],[43.44,41.107],[43.454,41.064],[43.519,41.005],[43.591,40.969],[43.631,40.929],[43.695,40.795],[43.724,40.72],[43.713,40.647],[43.667,40.574],[43.569,40.482],[43.595,40.444],[43.616,40.394],[43.609,40.356],[43.677,40.239],[43.71,40.167],[43.685,40.149],[43.667,40.127],[43.793,40.071],[43.94,40.022],[44.005,40.014],[44.178,40.036],[44.289,40.04],[44.401,39.996],[44.559,39.887],[44.732,39.746],[44.768,39.703],[44.783,39.684],[44.819,39.651],[44.783,39.651],[44.725,39.682],[44.588,39.769],[44.516,39.731],[44.455,39.667],[44.39,39.422],[44.336,39.396],[44.239,39.397],[44.124,39.404],[44.045,39.392],[44.023,39.377],[44.034,39.351],[44.059,39.311],[44.073,39.26],[44.081,39.219],[44.12,39.18],[44.178,39.144],[44.181,39.108],[44.171,39.055],[44.16,39.017],[44.145,38.995],[44.171,38.934],[44.232,38.863],[44.271,38.837],[44.257,38.701],[44.279,38.641],[44.297,38.557],[44.289,38.42],[44.3,38.387],[44.318,38.375],[44.376,38.37],[44.43,38.358],[44.451,38.335],[44.448,38.318],[44.379,38.255],[44.372,38.21],[44.351,38.146],[44.329,38.109],[44.268,38.038],[44.228,37.967],[44.21,37.908],[44.225,37.88],[44.336,37.872],[44.397,37.83],[44.559,37.745],[44.588,37.71],[44.545,37.658],[44.545,37.637],[44.567,37.609],[44.577,37.561],[44.574,37.507],[44.574,37.436],[44.603,37.424],[44.714,37.358],[44.793,37.29],[44.797,37.269],[44.757,37.217],[44.768,37.156],[44.765,37.142],[44.732,37.165],[44.671,37.174],[44.606,37.175],[44.567,37.158],[44.495,37.111],[44.401,37.059],[44.325,37.01],[44.282,36.978],[44.246,36.983],[44.217,37.012],[44.203,37.052],[44.207,37.203],[44.192,37.25],[44.156,37.283],[44.113,37.302],[44.066,37.313],[44.012,37.314],[43.94,37.269],[43.836,37.224],[43.677,37.227],[43.569,37.236],[43.515,37.245],[43.307,37.314],[43.263,37.316],[43.184,37.346],[43.094,37.368],[42.936,37.325],[42.867,37.335],[42.774,37.372],[42.741,37.361],[42.637,37.25],[42.457,37.129],[42.36,37.109],[42.313,37.229],[42.27,37.276],[42.248,37.283],[42.201,37.297],[42.169,37.288],[42.061,37.207],[41.888,37.156],[41.744,37.127],[41.514,37.089],[41.341,37.071],[41.265,37.07],[41.103,37.085],[40.959,37.109],[40.815,37.108],[40.707,37.097],[40.452,37.009],[40.016,36.826],[39.685,36.738],[39.501,36.701],[39.357,36.682],[39.109,36.681],[38.907,36.695],[38.767,36.693],[38.688,36.715],[38.58,36.788],[38.443,36.863],[38.385,36.879],[38.306,36.894],[38.191,36.901],[37.907,36.795],[37.817,36.766],[37.719,36.743],[37.525,36.679],[37.435,36.642],[37.327,36.646],[37.187,36.656],[37.068,36.653],[36.985,36.703],[36.942,36.759],[36.776,36.793],[36.657,36.802],[36.629,36.778],[36.596,36.701],[36.546,36.507],[36.539,36.457],[36.643,36.264],[36.636,36.234],[36.564,36.224],[36.477,36.221],[36.42,36.203],[36.377,36.172],[36.348,36.004],[36.251,35.972],[36.2,35.938],[36.153,35.833],[36.128,35.832],[35.966,35.91],[35.894,35.917],[35.955,35.998],[35.887,36.16],[35.811,36.309],[35.883,36.406],[36.031,36.523],[36.189,36.66],[36.189,36.743],[36.179,36.807],[36.135,36.851],[36.049,36.91],[35.905,36.847],[35.801,36.778],[35.736,36.764],[35.66,36.724],[35.624,36.653],[35.538,36.597],[35.394,36.575],[35.178,36.636],[34.944,36.726],[34.811,36.799],[34.703,36.816],[34.602,36.785],[34.299,36.604],[34.022,36.34],[33.954,36.295],[33.695,36.182],[33.522,36.144],[33.443,36.153],[33.101,36.103],[32.928,36.096],[32.795,36.037],[32.535,36.101],[32.377,36.184],[32.283,36.267],[32.132,36.45],[32.021,36.535],[31.779,36.613],[31.351,36.8],[31.239,36.821],[30.951,36.849],[30.645,36.866],[30.581,36.797],[30.559,36.526],[30.505,36.451],[30.483,36.311],[30.447,36.269],[30.386,36.243],[30.296,36.288],[30.231,36.307],[30.084,36.25],[29.788,36.169],[29.688,36.156],[29.349,36.259],[29.223,36.325],[29.144,36.398],[29.115,36.521],[29.065,36.59],[29.058,36.639],[29.04,36.693],[28.971,36.715],[28.896,36.674],[28.816,36.675],[28.719,36.701],[28.485,36.804],[28.305,36.813],[28.197,36.686],[28.111,36.646],[28.021,36.634],[28.014,36.67],[28.086,36.752],[27.805,36.736],[27.657,36.675],[27.542,36.684],[27.456,36.712],[27.466,36.747],[27.556,36.759],[27.632,36.787],[27.934,36.809],[28.006,36.832],[28.082,36.92],[28.226,36.997],[28.244,37.03],[28.132,37.03],[27.668,37.007],[27.348,37.019],[27.312,36.983],[27.261,36.976],[27.25,37.08],[27.301,37.127],[27.369,37.122],[27.535,37.163],[27.52,37.248],[27.402,37.307],[27.376,37.34],[27.29,37.349],[27.218,37.389],[27.204,37.491],[27.15,37.604],[27.067,37.658],[27.078,37.688],[27.225,37.726],[27.254,37.882],[27.232,37.979],[27.16,37.986],[26.944,38.063],[26.88,38.056],[26.808,38.139],[26.682,38.198],[26.62,38.177],[26.581,38.149],[26.523,38.161],[26.43,38.214],[26.332,38.243],[26.289,38.278],[26.343,38.37],[26.415,38.368],[26.43,38.441],[26.372,38.562],[26.379,38.625],[26.44,38.641],[26.512,38.63],[26.588,38.557],[26.61,38.486],[26.595,38.418],[26.642,38.352],[26.674,38.335],[26.696,38.406],[26.728,38.418],[26.772,38.389],[26.862,38.373],[27.099,38.415],[27.142,38.451],[26.97,38.448],[26.908,38.481],[26.836,38.557],[26.797,38.627],[26.786,38.66],[26.764,38.71],[26.79,38.736],[26.908,38.776],[27.013,38.887],[26.97,38.918],[26.919,38.934],[26.865,38.924],[26.815,38.962],[26.808,39.014],[26.851,39.057],[26.854,39.116],[26.718,39.26],[26.682,39.292],[26.71,39.34],[26.815,39.418],[26.912,39.517],[26.898,39.55],[26.826,39.562],[26.484,39.521],[26.35,39.484],[26.113,39.467],[26.095,39.521],[26.102,39.569],[26.156,39.656],[26.149,39.873],[26.181,39.989],[26.314,40.024],[26.476,40.198],[26.739,40.401],[27.013,40.396],[27.121,40.453],[27.283,40.456],[27.315,40.415],[27.333,40.377],[27.477,40.319],[27.729,40.328],[27.79,40.351],[27.848,40.382],[27.733,40.481],[27.769,40.51],[27.873,40.514],[27.988,40.489],[27.996,40.467],[27.963,40.436],[27.927,40.38],[27.963,40.37],[28.287,40.403],[28.629,40.377],[28.737,40.39],[29.007,40.39],[29.054,40.423],[28.975,40.467],[28.896,40.482],[28.842,40.503],[28.788,40.535],[28.957,40.63],[29.054,40.649],[29.508,40.708],[29.846,40.738],[29.85,40.76],[29.799,40.76],[29.364,40.809],[29.259,40.847],[29.115,40.937],[29.083,40.963],[29.047,41.007],[29.068,41.102],[29.094,41.177],[29.148,41.22],[29.32,41.227],[29.918,41.151],[30.347,41.198],[30.811,41.085],[31.254,41.107],[31.347,41.158],[31.459,41.319],[32.085,41.59],[32.305,41.729],[32.543,41.807],[32.946,41.892],[33.284,42.005],[33.381,42.017],[34.191,41.963],[34.749,41.956],[35.005,42.064],[35.156,42.028],[35.142,41.989],[35.113,41.956],[35.124,41.89],[35.21,41.795],[35.297,41.729],[35.559,41.633],[35.919,41.713],[35.977,41.705],[36.053,41.682],[36.179,41.427],[36.279,41.337],[36.405,41.274],[36.51,41.262],[36.585,41.326],[36.647,41.352],[36.776,41.363],[36.992,41.276],[37.068,41.184],[37.431,41.114],[37.766,41.08],[37.91,41.002],[38.382,40.925],[38.558,40.937],[38.853,41.017],[39.426,41.106],[39.807,40.982],[39.912,40.967],[40.002,40.977],[40.128,40.943],[40.265,40.962],[40.686,41.107],[40.819,41.191],[40.959,41.212],[41.082,41.262],[41.413,41.423],[41.51,41.517]]],[[[28.014,41.969],[27.988,41.856],[28.05,41.729],[28.197,41.555],[28.345,41.467],[28.946,41.248],[29.058,41.229],[29.032,41.14],[28.996,41.061],[28.957,41.009],[28.78,40.974],[28.294,41.071],[28.172,41.081],[28.086,41.061],[27.924,40.991],[27.747,41.014],[27.499,40.974],[27.43,40.84],[27.258,40.687],[26.973,40.564],[26.772,40.498],[26.469,40.262],[26.329,40.123],[26.271,40.097],[26.203,40.075],[26.224,40.142],[26.26,40.203],[26.253,40.248],[26.253,40.314],[26.354,40.39],[26.448,40.444],[26.721,40.545],[26.793,40.627],[26.577,40.625],[26.361,40.606],[26.224,40.618],[26.106,40.611],[26.066,40.684],[26.037,40.727],[26.07,40.739],[26.109,40.75],[26.178,40.826],[26.242,40.884],[26.332,40.955],[26.354,40.996],[26.354,41.036],[26.332,41.064],[26.329,41.097],[26.325,41.144],[26.332,41.239],[26.538,41.344],[26.602,41.354],[26.624,41.403],[26.61,41.512],[26.581,41.6],[26.545,41.607],[26.494,41.633],[26.462,41.663],[26.412,41.696],[26.322,41.717],[26.318,41.745],[26.329,41.772],[26.361,41.802],[26.512,41.826],[26.53,41.847],[26.548,41.897],[26.581,41.948],[26.617,41.965],[26.678,41.963],[26.8,41.975],[26.883,41.991],[26.97,42.028],[27.013,42.059],[27.193,42.078],[27.243,42.094],[27.294,42.08],[27.362,42.026],[27.474,41.948],[27.535,41.922],[27.582,41.932],[27.661,41.962],[27.74,41.962],[27.801,41.956],[27.834,41.981],[27.88,41.986],[28.014,41.969]]]]}},{"type":"Feature","properties":{"name":"Syria","side":"gulf"},"geometry":{"type":"Polygon","coordinates":[[[35.894,35.917],[35.966,35.91],[36.128,35.832],[36.153,35.833],[36.2,35.938],[36.251,35.972],[36.348,36.004],[36.377,36.172],[36.42,36.203],[36.477,36.221],[36.564,36.224],[36.636,36.234],[36.643,36.264],[36.539,36.457],[36.546,36.507],[36.596,36.701],[36.629,36.778],[36.657,36.802],[36.776,36.793],[36.942,36.759],[36.985,36.703],[37.068,36.653],[37.187,36.656],[37.327,36.646],[37.435,36.642],[37.525,36.679],[37.719,36.743],[37.817,36.766],[37.907,36.795],[38.191,36.901],[38.306,36.894],[38.385,36.879],[38.443,36.863],[38.58,36.788],[38.688,36.715],[38.767,36.693],[38.907,36.695],[39.109,36.681],[39.357,36.682],[39.501,36.701],[39.685,36.738],[40.016,36.826],[40.452,37.009],[40.707,37.097],[40.815,37.108],[40.959,37.109],[41.103,37.085],[41.265,37.07],[41.341,37.071],[41.514,37.089],[41.744,37.127],[41.888,37.156],[42.061,37.207],[42.169,37.288],[42.201,37.297],[42.248,37.283],[42.27,37.276],[42.313,37.229],[42.36,37.109],[42.36,37.096],[42.349,37.061],[42.237,36.962],[42.083,36.826],[41.975,36.741],[41.787,36.597],[41.651,36.566],[41.417,36.514],[41.355,36.464],[41.294,36.384],[41.262,36.273],[41.251,36.203],[41.244,36.073],[41.301,35.939],[41.352,35.809],[41.359,35.724],[41.355,35.641],[41.305,35.551],[41.247,35.427],[41.215,35.288],[41.201,35.028],[41.201,34.806],[41.193,34.769],[41.1,34.613],[40.988,34.429],[40.934,34.387],[40.689,34.332],[40.423,34.198],[40.121,34.047],[39.851,33.912],[39.566,33.768],[39.267,33.62],[39.055,33.514],[38.774,33.372],[38.515,33.236],[38.256,33.099],[38.054,32.995],[37.755,32.83],[37.579,32.733],[37.316,32.591],[37.089,32.466],[36.819,32.318],[36.481,32.361],[36.373,32.388],[36.283,32.457],[36.218,32.495],[36.06,32.533],[35.955,32.667],[35.894,32.714],[35.786,32.735],[35.801,32.782],[35.858,32.863],[35.912,32.95],[35.883,32.999],[35.873,33.039],[35.869,33.089],[35.905,33.136],[35.887,33.193],[35.858,33.25],[35.837,33.278],[35.837,33.33],[35.851,33.37],[35.869,33.433],[35.916,33.466],[35.927,33.5],[35.966,33.535],[36.024,33.563],[36.035,33.585],[36.027,33.598],[35.973,33.624],[35.941,33.667],[35.97,33.733],[35.988,33.752],[36.02,33.783],[36.092,33.832],[36.15,33.839],[36.2,33.839],[36.283,33.835],[36.348,33.827],[36.366,33.839],[36.362,33.854],[36.283,33.894],[36.279,33.926],[36.297,33.959],[36.355,34.011],[36.423,34.051],[36.456,34.058],[36.535,34.134],[36.585,34.221],[36.506,34.433],[36.456,34.466],[36.377,34.495],[36.33,34.5],[36.326,34.514],[36.387,34.566],[36.434,34.613],[36.384,34.658],[36.297,34.679],[36.265,34.632],[36.15,34.629],[35.977,34.629],[35.898,34.853],[35.887,34.948],[35.891,35.061],[35.945,35.224],[35.919,35.299],[35.916,35.351],[35.901,35.42],[35.765,35.571],[35.84,35.849],[35.894,35.917]]]}},{"type":"Feature","properties":{"name":"Saudi Arabia","side":"gulf"},"geometry":{"type":"MultiPolygon","coordinates":[[[[36.902,25.383],[36.877,25.383],[36.805,25.45],[36.765,25.501],[36.722,25.534],[36.531,25.601],[36.503,25.645],[36.535,25.688],[36.553,25.645],[36.589,25.621],[36.747,25.558],[36.924,25.426],[36.956,25.414],[36.902,25.383]]],[[[41.989,16.715],[42.065,16.71],[42.032,16.743],[42.025,16.758],[42.061,16.803],[42.169,16.708],[42.165,16.597],[42.158,16.571],[42.129,16.595],[42.108,16.618],[42.101,16.644],[42.072,16.671],[41.964,16.654],[41.899,16.684],[41.802,16.779],[41.777,16.847],[41.816,16.861],[41.859,16.894],[41.885,16.947],[41.859,17.003],[41.917,16.994],[41.949,16.937],[41.953,16.807],[41.964,16.779],[41.946,16.75],[41.989,16.715]]],[[[51.979,18.996],[51.742,18.965],[51.515,18.933],[51.259,18.899],[50.95,18.857],[50.708,18.826],[50.356,18.777],[50.039,18.736],[49.743,18.696],[49.445,18.656],[49.193,18.621],[49.041,18.581],[48.865,18.496],[48.591,18.362],[48.314,18.227],[48.174,18.157],[48.023,17.977],[47.947,17.887],[47.807,17.722],[47.702,17.597],[47.58,17.449],[47.526,17.316],[47.443,17.112],[47.371,17.06],[47.252,16.994],[47.144,16.947],[46.975,16.953],[46.881,17.079],[46.777,17.211],[46.727,17.265],[46.683,17.269],[46.514,17.251],[46.309,17.23],[46.071,17.253],[45.794,17.279],[45.535,17.302],[45.405,17.319],[45.236,17.406],[45.193,17.423],[45.146,17.427],[44.948,17.43],[44.747,17.432],[44.545,17.404],[44.354,17.414],[44.156,17.399],[44.084,17.366],[44.009,17.368],[43.958,17.338],[43.919,17.324],[43.865,17.35],[43.803,17.343],[43.713,17.366],[43.652,17.421],[43.598,17.472],[43.541,17.5],[43.476,17.515],[43.418,17.517],[43.346,17.486],[43.303,17.456],[43.191,17.359],[43.188,17.324],[43.238,17.267],[43.22,17.239],[43.155,17.204],[43.137,17.112],[43.127,17.062],[43.116,16.942],[43.145,16.847],[43.184,16.812],[43.188,16.77],[43.166,16.689],[43.105,16.665],[43.062,16.586],[43.033,16.55],[42.986,16.508],[42.799,16.371],[42.788,16.451],[42.731,16.569],[42.727,16.654],[42.698,16.737],[42.648,16.802],[42.554,16.868],[42.543,16.96],[42.475,17.05],[42.385,17.123],[42.331,17.257],[42.295,17.435],[42.054,17.67],[41.751,17.885],[41.658,18.008],[41.507,18.256],[41.431,18.453],[41.229,18.678],[41.222,18.765],[41.19,18.871],[41.143,18.989],[41.118,19.083],[40.913,19.491],[40.848,19.555],[40.79,19.647],[40.776,19.716],[40.758,19.755],[40.617,19.822],[40.481,19.994],[40.081,20.267],[39.883,20.293],[39.728,20.39],[39.613,20.518],[39.491,20.737],[39.275,20.973],[39.095,21.31],[39.152,21.433],[39.149,21.518],[39.091,21.664],[39.03,21.775],[38.987,21.881],[39.023,22.034],[39.033,22.204],[39.069,22.294],[39.095,22.393],[39.062,22.593],[39.001,22.699],[39.008,22.77],[38.94,22.805],[38.882,22.883],[38.94,22.881],[38.835,22.989],[38.796,23.048],[38.756,23.194],[38.706,23.305],[38.544,23.558],[38.465,23.713],[38.288,23.911],[38.097,24.058],[37.979,24.124],[37.921,24.185],[37.82,24.188],[37.712,24.275],[37.637,24.277],[37.543,24.291],[37.431,24.459],[37.338,24.615],[37.179,24.82],[37.219,24.874],[37.266,24.961],[37.244,25.074],[37.219,25.15],[37.151,25.291],[36.92,25.641],[36.859,25.692],[36.762,25.751],[36.704,25.904],[36.675,26.039],[36.517,26.105],[36.251,26.594],[36.092,26.766],[36.031,26.881],[35.851,27.07],[35.765,27.259],[35.581,27.433],[35.423,27.733],[35.181,28.035],[35.077,28.087],[34.829,28.108],[34.721,28.131],[34.623,28.065],[34.616,28.148],[34.685,28.264],[34.778,28.508],[34.8,28.721],[34.951,29.353],[35.163,29.322],[35.34,29.294],[35.595,29.254],[35.862,29.214],[36.017,29.19],[36.067,29.2],[36.283,29.355],[36.477,29.495],[36.593,29.665],[36.704,29.832],[36.755,29.867],[36.927,29.896],[37.201,29.947],[37.471,29.995],[37.489,30.011],[37.554,30.145],[37.633,30.313],[37.651,30.33],[37.669,30.348],[37.863,30.443],[37.979,30.5],[37.813,30.669],[37.655,30.829],[37.478,31.007],[37.331,31.146],[37.104,31.355],[36.96,31.492],[37.215,31.556],[37.493,31.625],[37.773,31.697],[38.112,31.782],[38.375,31.848],[38.771,31.947],[38.961,31.995],[38.997,32.007],[39.145,32.125],[39.368,32.092],[39.703,32.042],[40.027,31.995],[40.369,31.94],[40.481,31.893],[40.808,31.726],[41.024,31.617],[41.273,31.488],[41.586,31.33],[41.798,31.221],[42.075,31.08],[42.288,30.921],[42.561,30.717],[42.857,30.495],[43.101,30.322],[43.44,30.084],[43.775,29.849],[44.099,29.619],[44.361,29.435],[44.689,29.202],[44.718,29.193],[45.049,29.167],[45.499,29.131],[45.949,29.096],[46.356,29.063],[46.532,29.096],[46.723,29.075],[46.982,29.046],[47.137,29.027],[47.432,28.99],[47.522,28.837],[47.555,28.731],[47.583,28.627],[47.67,28.534],[47.871,28.535],[48.048,28.537],[48.267,28.541],[48.444,28.542],[48.498,28.449],[48.523,28.355],[48.627,28.133],[48.775,27.959],[48.807,27.896],[48.833,27.801],[48.807,27.765],[48.797,27.725],[48.905,27.629],[49.088,27.549],[49.157,27.528],[49.236,27.492],[49.175,27.438],[49.283,27.31],[49.405,27.181],[49.538,27.152],[49.718,26.956],[49.985,26.829],[50.15,26.662],[50.136,26.659],[50.086,26.676],[50.028,26.699],[50.01,26.678],[50.01,26.608],[50.028,26.527],[50.111,26.456],[50.186,26.405],[50.215,26.308],[50.154,26.1],[50.136,26.101],[50.096,26.119],[50.053,26.122],[50.032,26.11],[50.082,25.961],[50.129,25.846],[50.19,25.756],[50.24,25.622],[50.28,25.567],[50.456,25.424],[50.507,25.306],[50.557,25.086],[50.665,24.964],[50.726,24.869],[50.806,24.789],[50.856,24.68],[50.928,24.595],[50.968,24.574],[51.022,24.565],[51.094,24.565],[51.176,24.586],[51.266,24.607],[51.338,24.565],[51.41,24.57],[51.418,24.53],[51.371,24.477],[51.31,24.341],[51.396,24.319],[51.475,24.308],[51.536,24.286],[51.569,24.286],[51.569,24.258],[51.572,24.128],[51.594,24.079],[51.63,24.036],[51.684,23.97],[51.738,23.904],[51.796,23.838],[51.85,23.773],[51.904,23.707],[51.961,23.642],[52.015,23.577],[52.069,23.511],[52.123,23.445],[52.181,23.379],[52.235,23.315],[52.289,23.249],[52.346,23.183],[52.4,23.117],[52.454,23.053],[52.508,22.987],[52.555,22.933],[52.638,22.923],[52.667,22.919],[52.742,22.911],[52.858,22.895],[53.012,22.878],[53.192,22.855],[53.394,22.831],[53.61,22.805],[53.833,22.777],[54.056,22.749],[54.269,22.723],[54.47,22.699],[54.654,22.676],[54.805,22.657],[54.924,22.643],[55,22.635],[55.025,22.631],[55.104,22.621],[55.118,22.624],[55.187,22.704],[55.259,22.591],[55.32,22.497],[55.403,22.367],[55.493,22.23],[55.579,22.1],[55.64,22.001],[55.608,21.9],[55.572,21.789],[55.536,21.68],[55.496,21.569],[55.46,21.458],[55.424,21.347],[55.388,21.235],[55.352,21.126],[55.313,21.015],[55.277,20.904],[55.241,20.793],[55.205,20.683],[55.169,20.572],[55.133,20.461],[55.093,20.35],[55.057,20.241],[55.021,20.13],[54.978,19.996],[54.87,19.961],[54.701,19.904],[54.528,19.847],[54.355,19.789],[54.182,19.73],[54.01,19.673],[53.84,19.616],[53.668,19.558],[53.495,19.501],[53.322,19.444],[53.149,19.387],[52.98,19.329],[52.807,19.272],[52.634,19.215],[52.462,19.157],[52.292,19.1],[52.12,19.043],[51.979,18.996]]],[[[36.596,25.713],[36.585,25.699],[36.542,25.735],[36.546,25.812],[36.582,25.855],[36.578,25.796],[36.596,25.735],[36.596,25.713]]]]}},{"type":"Feature","properties":{"name":"Qatar","side":"gulf"},"geometry":{"type":"Polygon","coordinates":[[[51.266,24.607],[51.176,24.586],[51.094,24.565],[51.022,24.565],[50.968,24.574],[50.928,24.595],[50.856,24.68],[50.806,24.789],[50.834,24.85],[50.845,24.888],[50.777,25.178],[50.755,25.4],[50.762,25.445],[50.802,25.497],[50.87,25.612],[50.903,25.725],[51.004,25.982],[51.108,26.081],[51.263,26.154],[51.389,26.011],[51.544,25.902],[51.572,25.78],[51.526,25.681],[51.486,25.525],[51.511,25.452],[51.518,25.39],[51.562,25.284],[51.601,25.148],[51.608,25.053],[51.587,24.964],[51.533,24.891],[51.428,24.668],[51.396,24.645],[51.266,24.607]]]}},{"type":"Feature","properties":{"name":"Oman","side":"gulf"},"geometry":{"type":"MultiPolygon","coordinates":[[[[58.722,20.218],[58.661,20.204],[58.639,20.211],[58.643,20.338],[58.787,20.496],[58.884,20.68],[58.952,20.517],[58.834,20.425],[58.772,20.267],[58.722,20.218]]],[[[53.084,16.649],[53.027,16.781],[52.966,16.913],[52.904,17.045],[52.843,17.175],[52.8,17.269],[52.728,17.3],[52.685,17.397],[52.642,17.498],[52.598,17.598],[52.552,17.697],[52.508,17.798],[52.465,17.897],[52.422,17.998],[52.375,18.097],[52.332,18.197],[52.289,18.296],[52.242,18.397],[52.199,18.496],[52.156,18.597],[52.109,18.696],[52.066,18.796],[52.022,18.897],[51.979,18.996],[52.12,19.043],[52.292,19.1],[52.462,19.157],[52.634,19.215],[52.807,19.272],[52.98,19.329],[53.149,19.387],[53.322,19.444],[53.495,19.501],[53.668,19.558],[53.84,19.616],[54.01,19.673],[54.182,19.73],[54.355,19.789],[54.528,19.847],[54.701,19.904],[54.87,19.961],[54.978,19.996],[55.021,20.13],[55.057,20.241],[55.093,20.35],[55.133,20.461],[55.169,20.572],[55.205,20.683],[55.241,20.793],[55.277,20.904],[55.313,21.015],[55.352,21.126],[55.388,21.235],[55.424,21.347],[55.46,21.458],[55.496,21.569],[55.536,21.68],[55.572,21.789],[55.608,21.9],[55.64,22.001],[55.579,22.1],[55.493,22.23],[55.403,22.367],[55.32,22.497],[55.259,22.591],[55.187,22.704],[55.194,22.85],[55.194,22.923],[55.201,23.034],[55.27,23.19],[55.352,23.388],[55.414,23.518],[55.468,23.633],[55.507,23.725],[55.532,23.819],[55.518,23.886],[55.493,23.909],[55.468,23.942],[55.547,23.992],[55.698,24.023],[55.781,24.016],[55.892,24.041],[55.986,24.063],[55.993,24.093],[55.968,24.143],[55.928,24.214],[55.799,24.223],[55.759,24.242],[55.806,24.35],[55.802,24.383],[55.788,24.423],[55.77,24.49],[55.777,24.577],[55.802,24.636],[55.806,24.683],[55.792,24.782],[55.795,24.869],[55.824,24.911],[55.871,24.952],[55.918,24.971],[55.964,24.97],[56,24.954],[56.018,24.907],[56.008,24.876],[55.979,24.872],[55.972,24.858],[56.008,24.798],[56.065,24.739],[56.105,24.749],[56.155,24.796],[56.206,24.834],[56.267,24.867],[56.314,24.931],[56.353,24.973],[56.389,24.98],[56.49,24.716],[56.641,24.47],[56.774,24.334],[56.911,24.15],[57.124,23.98],[57.221,23.923],[57.61,23.803],[57.826,23.76],[58.121,23.716],[58.326,23.624],[58.394,23.619],[58.499,23.645],[58.578,23.643],[58.772,23.517],[58.83,23.397],[58.913,23.334],[58.985,23.235],[59.032,23.131],[59.194,22.971],[59.312,22.793],[59.431,22.661],[59.536,22.579],[59.694,22.546],[59.824,22.51],[59.838,22.421],[59.824,22.305],[59.798,22.22],[59.68,22.053],[59.651,21.951],[59.518,21.782],[59.37,21.499],[59.305,21.435],[59.068,21.289],[58.895,21.112],[58.69,20.807],[58.535,20.505],[58.474,20.407],[58.348,20.387],[58.265,20.395],[58.211,20.425],[58.232,20.506],[58.247,20.6],[58.171,20.59],[58.103,20.571],[57.948,20.343],[57.862,20.244],[57.844,20.117],[57.8,19.954],[57.743,19.805],[57.714,19.678],[57.714,19.607],[57.761,19.432],[57.764,19.253],[57.79,19.145],[57.811,19.017],[57.739,18.977],[57.674,18.958],[57.43,18.944],[57.178,18.902],[56.958,18.828],[56.825,18.753],[56.656,18.588],[56.551,18.166],[56.382,17.987],[56.27,17.951],[55.997,17.935],[55.615,17.887],[55.478,17.843],[55.255,17.586],[55.237,17.505],[55.28,17.446],[55.295,17.381],[55.277,17.321],[55.172,17.158],[55.064,17.04],[54.773,16.965],[54.665,17.008],[54.568,17.031],[54.377,17.034],[54.067,17.005],[53.956,16.918],[53.776,16.855],[53.61,16.76],[53.297,16.724],[53.084,16.649]]],[[[56.299,25.65],[56.278,25.628],[56.249,25.626],[56.184,25.645],[56.144,25.69],[56.152,25.746],[56.155,25.848],[56.173,25.945],[56.166,26.048],[56.116,26.068],[56.08,26.063],[56.166,26.207],[56.198,26.23],[56.227,26.219],[56.306,26.235],[56.346,26.313],[56.378,26.357],[56.414,26.351],[56.429,26.327],[56.418,26.207],[56.418,26.108],[56.375,25.805],[56.328,25.753],[56.306,25.709],[56.299,25.65]]],[[[56.281,25.235],[56.242,25.209],[56.209,25.213],[56.216,25.266],[56.234,25.305],[56.278,25.301],[56.288,25.279],[56.281,25.235]]]]}},{"type":"Feature","properties":{"name":"Lebanon","side":"hezbollah"},"geometry":{"type":"Polygon","coordinates":[[[35.977,34.629],[36.15,34.629],[36.265,34.632],[36.297,34.679],[36.384,34.658],[36.434,34.613],[36.387,34.566],[36.326,34.514],[36.33,34.5],[36.377,34.495],[36.456,34.466],[36.506,34.433],[36.585,34.221],[36.535,34.134],[36.456,34.058],[36.423,34.051],[36.355,34.011],[36.297,33.959],[36.279,33.926],[36.283,33.894],[36.362,33.854],[36.366,33.839],[36.348,33.827],[36.283,33.835],[36.2,33.839],[36.15,33.839],[36.092,33.832],[36.02,33.783],[35.988,33.752],[35.97,33.733],[35.941,33.667],[35.973,33.624],[36.027,33.598],[36.035,33.585],[36.024,33.563],[35.966,33.535],[35.927,33.5],[35.916,33.466],[35.869,33.433],[35.84,33.415],[35.786,33.37],[35.736,33.332],[35.628,33.275],[35.603,33.24],[35.581,33.271],[35.534,33.25],[35.495,33.12],[35.412,33.075],[35.307,33.08],[35.225,33.092],[35.109,33.084],[35.156,33.16],[35.203,33.259],[35.25,33.393],[35.336,33.504],[35.513,33.88],[35.613,34.032],[35.649,34.249],[35.804,34.438],[35.923,34.493],[35.977,34.547],[35.977,34.629]]]}},{"type":"Feature","properties":{"name":"Kuwait","side":"gulf"},"geometry":{"type":"MultiPolygon","coordinates":[[[[48.275,29.624],[48.217,29.601],[48.181,29.612],[48.141,29.665],[48.08,29.799],[48.116,29.849],[48.113,29.87],[48.12,29.886],[48.138,29.896],[48.159,29.959],[48.185,29.98],[48.228,29.936],[48.347,29.784],[48.347,29.719],[48.339,29.695],[48.275,29.624]]],[[[48.444,28.542],[48.267,28.541],[48.048,28.537],[47.871,28.535],[47.67,28.534],[47.583,28.627],[47.555,28.731],[47.522,28.837],[47.432,28.99],[47.137,29.027],[46.982,29.046],[46.723,29.075],[46.532,29.096],[46.694,29.259],[46.77,29.348],[46.907,29.537],[46.975,29.672],[47.043,29.823],[47.101,29.94],[47.115,29.961],[47.148,30.001],[47.223,30.042],[47.331,30.08],[47.515,30.096],[47.645,30.098],[47.673,30.096],[47.753,30.077],[47.979,29.983],[47.972,29.947],[48.005,29.836],[48.077,29.716],[48.138,29.619],[48.145,29.572],[48.091,29.579],[48.048,29.598],[47.969,29.617],[47.817,29.487],[47.724,29.417],[47.724,29.393],[47.846,29.365],[47.936,29.367],[47.997,29.386],[48.051,29.355],[48.087,29.275],[48.102,29.211],[48.185,28.98],[48.253,28.902],[48.339,28.763],[48.372,28.692],[48.39,28.631],[48.444,28.542]]]]}},{"type":"Feature","properties":{"name":"Jordan","side":"gulf"},"geometry":{"type":"Polygon","coordinates":[[[35.786,32.735],[35.894,32.714],[35.955,32.667],[36.06,32.533],[36.218,32.495],[36.283,32.457],[36.373,32.388],[36.481,32.361],[36.819,32.318],[37.089,32.466],[37.316,32.591],[37.579,32.733],[37.755,32.83],[38.054,32.995],[38.256,33.099],[38.515,33.236],[38.774,33.372],[38.846,33.151],[38.915,32.934],[38.987,32.71],[39.059,32.493],[38.983,32.473],[39.041,32.306],[39.141,32.332],[39.246,32.351],[39.293,32.243],[39.145,32.125],[38.997,32.007],[38.961,31.995],[38.771,31.947],[38.375,31.848],[38.112,31.782],[37.773,31.697],[37.493,31.625],[37.215,31.556],[36.96,31.492],[37.104,31.355],[37.331,31.146],[37.478,31.007],[37.655,30.829],[37.813,30.669],[37.979,30.5],[37.863,30.443],[37.669,30.348],[37.651,30.33],[37.633,30.313],[37.554,30.145],[37.489,30.011],[37.471,29.995],[37.201,29.947],[36.927,29.896],[36.755,29.867],[36.704,29.832],[36.593,29.665],[36.477,29.495],[36.283,29.355],[36.067,29.2],[36.017,29.19],[35.862,29.214],[35.595,29.254],[35.34,29.294],[35.163,29.322],[34.951,29.353],[34.983,29.485],[34.973,29.554],[35.023,29.787],[35.052,29.896],[35.07,29.978],[35.142,30.141],[35.131,30.195],[35.149,30.384],[35.142,30.421],[35.174,30.525],[35.235,30.674],[35.297,30.803],[35.322,30.86],[35.383,30.983],[35.441,31.132],[35.408,31.214],[35.401,31.231],[35.423,31.325],[35.451,31.48],[35.466,31.563],[35.498,31.672],[35.559,31.766],[35.531,31.985],[35.534,32.103],[35.574,32.238],[35.552,32.396],[35.57,32.62],[35.574,32.641],[35.595,32.669],[35.61,32.683],[35.736,32.73],[35.786,32.735]]]}},{"type":"Feature","properties":{"name":"Israel, Judea and Samaria","side":"israel"},"geometry":{"type":"Polygon","coordinates":[[[35.869,33.433],[35.851,33.37],[35.837,33.33],[35.837,33.278],[35.858,33.25],[35.887,33.193],[35.905,33.136],[35.869,33.089],[35.873,33.039],[35.883,32.999],[35.912,32.95],[35.858,32.863],[35.801,32.782],[35.786,32.735],[35.736,32.73],[35.61,32.683],[35.595,32.669],[35.574,32.641],[35.57,32.62],[35.552,32.396],[35.574,32.238],[35.534,32.103],[35.531,31.985],[35.559,31.766],[35.498,31.672],[35.466,31.563],[35.451,31.48],[35.423,31.325],[35.401,31.231],[35.408,31.214],[35.441,31.132],[35.383,30.983],[35.322,30.86],[35.297,30.803],[35.235,30.674],[35.174,30.525],[35.142,30.421],[35.149,30.384],[35.131,30.195],[35.142,30.141],[35.07,29.978],[35.052,29.896],[35.023,29.787],[34.973,29.554],[34.904,29.478],[34.868,29.565],[34.793,29.811],[34.735,29.981],[34.659,30.191],[34.53,30.447],[34.519,30.507],[34.49,30.596],[34.4,30.829],[34.328,30.995],[34.245,31.209],[34.35,31.292],[34.35,31.363],[34.526,31.526],[34.523,31.542],[34.476,31.585],[34.483,31.592],[34.677,31.896],[34.803,32.197],[34.922,32.615],[35.005,32.827],[35.077,32.967],[35.109,33.084],[35.225,33.092],[35.307,33.08],[35.412,33.075],[35.495,33.12],[35.534,33.25],[35.581,33.271],[35.603,33.24],[35.628,33.275],[35.736,33.332],[35.786,33.37],[35.84,33.415],[35.869,33.433]]]}},{"type":"Feature","properties":{"name":"Iraq","side":"iraqi_militias"},"geometry":{"type":"Polygon","coordinates":[[[42.36,37.109],[42.457,37.129],[42.637,37.25],[42.741,37.361],[42.774,37.372],[42.867,37.335],[42.936,37.325],[43.094,37.368],[43.184,37.346],[43.263,37.316],[43.307,37.314],[43.515,37.245],[43.569,37.236],[43.677,37.227],[43.836,37.224],[43.94,37.269],[44.012,37.314],[44.066,37.313],[44.113,37.302],[44.156,37.283],[44.192,37.25],[44.207,37.203],[44.203,37.052],[44.217,37.012],[44.246,36.983],[44.282,36.978],[44.325,37.01],[44.401,37.059],[44.495,37.111],[44.567,37.158],[44.606,37.175],[44.671,37.174],[44.732,37.165],[44.765,37.142],[44.765,37.135],[44.797,37.064],[44.88,36.799],[44.927,36.766],[44.981,36.738],[45.02,36.698],[45.035,36.658],[45.031,36.597],[45.031,36.526],[45.053,36.472],[45.085,36.431],[45.114,36.41],[45.157,36.408],[45.207,36.398],[45.24,36.356],[45.351,36.054],[45.362,36.016],[45.409,36.004],[45.485,36.009],[45.56,35.978],[45.647,35.929],[45.722,35.837],[45.776,35.821],[45.942,35.835],[46.169,35.821],[46.273,35.773],[46.262,35.745],[46.179,35.712],[46.039,35.674],[45.996,35.608],[45.971,35.524],[45.974,35.478],[46.01,35.426],[46.111,35.321],[46.118,35.285],[46.136,35.233],[46.154,35.196],[46.133,35.127],[46.043,35.08],[45.92,35.028],[45.679,34.799],[45.661,34.748],[45.661,34.613],[45.636,34.573],[45.56,34.575],[45.499,34.582],[45.499,34.533],[45.459,34.471],[45.438,34.415],[45.528,34.285],[45.542,34.216],[45.528,34.153],[45.445,34.044],[45.398,33.971],[45.409,33.955],[45.474,33.926],[45.675,33.686],[45.737,33.603],[45.823,33.625],[45.855,33.624],[45.881,33.61],[45.895,33.582],[45.895,33.545],[45.873,33.492],[45.981,33.471],[46.021,33.415],[46.147,33.229],[46.14,33.174],[46.082,33.087],[46.082,33.028],[46.093,32.976],[46.111,32.957],[46.298,32.95],[46.377,32.929],[46.568,32.834],[46.788,32.688],[46.968,32.568],[47.123,32.467],[47.285,32.474],[47.331,32.455],[47.371,32.424],[47.418,32.341],[47.511,32.151],[47.591,32.087],[47.713,31.936],[47.828,31.794],[47.753,31.601],[47.681,31.4],[47.681,31.141],[47.681,31.002],[47.835,30.997],[48.012,30.99],[48.012,30.823],[48.012,30.657],[48.015,30.466],[48.066,30.457],[48.149,30.417],[48.181,30.355],[48.228,30.322],[48.278,30.316],[48.332,30.285],[48.383,30.23],[48.401,30.188],[48.386,30.16],[48.397,30.11],[48.433,30.037],[48.48,30.004],[48.545,29.962],[48.455,29.938],[48.354,29.957],[48.141,30.04],[48.073,30.044],[47.983,30.011],[47.979,29.983],[47.753,30.077],[47.673,30.096],[47.645,30.098],[47.515,30.096],[47.331,30.08],[47.223,30.042],[47.148,30.001],[47.115,29.961],[47.101,29.94],[47.043,29.823],[46.975,29.672],[46.907,29.537],[46.77,29.348],[46.694,29.259],[46.532,29.096],[46.356,29.063],[45.949,29.096],[45.499,29.131],[45.049,29.167],[44.718,29.193],[44.689,29.202],[44.361,29.435],[44.099,29.619],[43.775,29.849],[43.44,30.084],[43.101,30.322],[42.857,30.495],[42.561,30.717],[42.288,30.921],[42.075,31.08],[41.798,31.221],[41.586,31.33],[41.273,31.488],[41.024,31.617],[40.808,31.726],[40.481,31.893],[40.369,31.94],[40.027,31.995],[39.703,32.042],[39.368,32.092],[39.145,32.125],[39.293,32.243],[39.246,32.351],[39.141,32.332],[39.041,32.306],[38.983,32.473],[39.059,32.493],[38.987,32.71],[38.915,32.934],[38.846,33.151],[38.774,33.372],[39.055,33.514],[39.267,33.62],[39.566,33.768],[39.851,33.912],[40.121,34.047],[40.423,34.198],[40.689,34.332],[40.934,34.387],[40.988,34.429],[41.1,34.613],[41.193,34.769],[41.201,34.806],[41.201,35.028],[41.215,35.288],[41.247,35.427],[41.305,35.551],[41.355,35.641],[41.359,35.724],[41.352,35.809],[41.301,35.939],[41.244,36.073],[41.251,36.203],[41.262,36.273],[41.294,36.384],[41.355,36.464],[41.417,36.514],[41.651,36.566],[41.787,36.597],[41.975,36.741],[42.083,36.826],[42.237,36.962],[42.349,37.061],[42.36,37.096],[42.36,37.109]]]}},{"type":"Feature","properties":{"name":"Iran","side":"iran"},"geometry":{"type":"MultiPolygon","coordinates":[[[[56.188,26.921],[56.094,26.801],[55.954,26.7],[55.892,26.732],[55.849,26.732],[55.748,26.692],[55.676,26.686],[55.543,26.617],[55.424,26.582],[55.342,26.586],[55.313,26.593],[55.295,26.64],[55.295,26.657],[55.349,26.648],[55.532,26.711],[55.763,26.811],[55.784,26.857],[55.748,26.931],[55.759,26.947],[55.907,26.91],[56.072,26.983],[56.213,27.002],[56.281,26.952],[56.188,26.921]]],[[[53.916,37.344],[54.193,37.332],[54.301,37.354],[54.46,37.408],[54.578,37.441],[54.64,37.444],[54.701,37.471],[54.744,37.502],[54.848,37.722],[54.899,37.778],[55.075,37.903],[55.226,37.981],[55.381,38.05],[55.579,38.099],[55.842,38.095],[56.051,38.078],[56.17,38.078],[56.227,38.073],[56.27,38.08],[56.296,38.095],[56.324,38.191],[56.368,38.222],[56.44,38.25],[56.544,38.25],[56.67,38.257],[56.774,38.25],[56.908,38.214],[57.08,38.21],[57.192,38.217],[57.26,38.179],[57.307,38.13],[57.332,38.089],[57.336,38.033],[57.336,37.99],[57.354,37.974],[57.422,37.948],[57.52,37.929],[57.71,37.905],[57.887,37.861],[57.98,37.83],[58.11,37.783],[58.261,37.665],[58.319,37.648],[58.387,37.635],[58.434,37.639],[58.549,37.688],[58.65,37.651],[58.7,37.656],[58.816,37.684],[58.938,37.649],[59.24,37.521],[59.273,37.524],[59.302,37.51],[59.327,37.481],[59.345,37.444],[59.366,37.333],[59.456,37.254],[59.561,37.179],[59.687,37.139],[59.95,37.042],[60.061,36.964],[60.18,36.83],[60.32,36.653],[60.342,36.637],[60.709,36.642],[61.12,36.642],[61.17,36.573],[61.159,36.432],[61.174,36.29],[61.213,36.191],[61.213,36.099],[61.184,36.052],[61.159,36],[61.152,35.978],[61.206,35.943],[61.253,35.868],[61.26,35.762],[61.235,35.705],[61.238,35.66],[61.264,35.62],[61.282,35.554],[61.278,35.514],[61.246,35.474],[61.224,35.424],[61.199,35.361],[61.188,35.313],[61.141,35.288],[61.102,35.273],[61.105,35.21],[61.127,35.156],[61.148,35.094],[61.123,35.051],[61.105,35.002],[61.069,34.922],[61.08,34.856],[61.04,34.799],[60.99,34.75],[60.958,34.71],[60.95,34.653],[60.914,34.634],[60.846,34.587],[60.803,34.554],[60.738,34.545],[60.727,34.518],[60.734,34.492],[60.763,34.476],[60.803,34.419],[60.889,34.32],[60.644,34.308],[60.569,34.219],[60.486,34.094],[60.526,33.842],[60.486,33.712],[60.511,33.639],[60.572,33.589],[60.655,33.561],[60.806,33.559],[60.907,33.538],[60.918,33.505],[60.86,33.457],[60.767,33.363],[60.716,33.323],[60.562,33.137],[60.562,33.059],[60.576,32.995],[60.644,32.794],[60.709,32.599],[60.828,32.249],[60.828,32.169],[60.788,31.986],[60.788,31.877],[60.803,31.735],[60.792,31.66],[60.821,31.495],[60.853,31.483],[61.112,31.452],[61.346,31.422],[61.66,31.382],[61.757,31.285],[61.814,31.073],[61.811,30.914],[61.786,30.832],[61.559,30.599],[61.332,30.363],[61.105,30.129],[60.842,29.858],[61.033,29.664],[61.152,29.542],[61.318,29.372],[61.339,29.332],[61.339,29.264],[61.508,29.006],[61.57,28.87],[61.624,28.792],[61.757,28.667],[61.89,28.546],[62.034,28.49],[62.131,28.478],[62.354,28.416],[62.434,28.363],[62.563,28.235],[62.718,28.252],[62.75,28.252],[62.758,28.244],[62.761,28.202],[62.74,28.002],[62.783,27.801],[62.812,27.497],[62.801,27.445],[62.765,27.357],[62.761,27.301],[62.754,27.266],[62.761,27.251],[62.812,27.23],[62.916,27.218],[63.168,27.252],[63.197,27.244],[63.258,27.207],[63.301,27.152],[63.305,27.124],[63.244,27.077],[63.233,26.999],[63.251,26.879],[63.24,26.865],[63.186,26.838],[63.168,26.666],[63.157,26.65],[63.092,26.633],[62.786,26.643],[62.75,26.64],[62.635,26.594],[62.441,26.561],[62.387,26.542],[62.311,26.49],[62.261,26.428],[62.25,26.369],[62.239,26.357],[62.128,26.369],[62.088,26.318],[61.868,26.242],[61.843,26.226],[61.811,26.166],[61.782,25.996],[61.753,25.843],[61.739,25.822],[61.67,25.768],[61.663,25.751],[61.67,25.692],[61.642,25.584],[61.616,25.286],[61.588,25.202],[61.534,25.195],[61.49,25.154],[61.411,25.102],[61.242,25.141],[61.109,25.183],[60.662,25.282],[60.616,25.331],[60.587,25.414],[60.511,25.437],[60.4,25.312],[60.025,25.384],[59.896,25.362],[59.82,25.4],[59.615,25.404],[59.456,25.482],[59.226,25.428],[59.046,25.417],[58.798,25.555],[58.531,25.593],[58.315,25.581],[58.204,25.591],[58.024,25.641],[57.937,25.692],[57.797,25.654],[57.732,25.725],[57.336,25.791],[57.26,25.919],[57.206,26.037],[57.203,26.159],[57.106,26.372],[57.073,26.68],[57.037,26.801],[56.983,26.905],[56.911,26.994],[56.814,27.089],[56.728,27.127],[56.357,27.2],[56.285,27.19],[56.119,27.143],[55.943,27.037],[55.651,26.978],[55.59,26.933],[55.518,26.831],[55.424,26.77],[55.295,26.785],[55.154,26.725],[54.895,26.556],[54.758,26.506],[54.643,26.509],[54.521,26.589],[54.247,26.697],[54.071,26.732],[53.822,26.707],[53.707,26.726],[53.506,26.851],[53.455,26.943],[53.34,27.004],[52.984,27.141],[52.692,27.324],[52.638,27.391],[52.602,27.494],[52.476,27.617],[52.192,27.718],[52.03,27.824],[51.842,27.848],[51.666,27.844],[51.59,27.863],[51.518,27.91],[51.277,28.131],[51.277,28.219],[51.13,28.435],[51.094,28.513],[51.061,28.726],[51.022,28.782],[50.867,28.87],[50.842,28.928],[50.878,29.004],[50.878,29.063],[50.795,29.117],[50.676,29.146],[50.647,29.212],[50.669,29.339],[50.651,29.421],[50.543,29.547],[50.388,29.679],[50.23,29.872],[50.168,29.921],[50.129,30.047],[50.071,30.198],[49.985,30.209],[49.556,30.028],[49.43,30.131],[49.056,30.308],[49.027,30.334],[49.002,30.374],[49.049,30.398],[49.095,30.407],[49.189,30.375],[49.247,30.412],[49.225,30.473],[49.131,30.509],[49.002,30.506],[49.038,30.45],[48.915,30.398],[48.89,30.327],[48.908,30.242],[48.919,30.12],[48.869,30.063],[48.833,30.035],[48.671,30.028],[48.595,29.974],[48.545,29.962],[48.48,30.004],[48.433,30.037],[48.397,30.11],[48.386,30.16],[48.401,30.188],[48.383,30.23],[48.332,30.285],[48.278,30.316],[48.228,30.322],[48.181,30.355],[48.149,30.417],[48.066,30.457],[48.015,30.466],[48.012,30.657],[48.012,30.823],[48.012,30.99],[47.835,30.997],[47.681,31.002],[47.681,31.141],[47.681,31.4],[47.753,31.601],[47.828,31.794],[47.713,31.936],[47.591,32.087],[47.511,32.151],[47.418,32.341],[47.371,32.424],[47.331,32.455],[47.285,32.474],[47.123,32.467],[46.968,32.568],[46.788,32.688],[46.568,32.834],[46.377,32.929],[46.298,32.95],[46.111,32.957],[46.093,32.976],[46.082,33.028],[46.082,33.087],[46.14,33.174],[46.147,33.229],[46.021,33.415],[45.981,33.471],[45.873,33.492],[45.895,33.545],[45.895,33.582],[45.881,33.61],[45.855,33.624],[45.823,33.625],[45.737,33.603],[45.675,33.686],[45.474,33.926],[45.409,33.955],[45.398,33.971],[45.445,34.044],[45.528,34.153],[45.542,34.216],[45.528,34.285],[45.438,34.415],[45.459,34.471],[45.499,34.533],[45.499,34.582],[45.56,34.575],[45.636,34.573],[45.661,34.613],[45.661,34.748],[45.679,34.799],[45.92,35.028],[46.043,35.08],[46.133,35.127],[46.154,35.196],[46.136,35.233],[46.118,35.285],[46.111,35.321],[46.01,35.426],[45.974,35.478],[45.971,35.524],[45.996,35.608],[46.039,35.674],[46.179,35.712],[46.262,35.745],[46.273,35.773],[46.169,35.821],[45.942,35.835],[45.776,35.821],[45.722,35.837],[45.647,35.929],[45.56,35.978],[45.485,36.009],[45.409,36.004],[45.362,36.016],[45.351,36.054],[45.24,36.356],[45.207,36.398],[45.157,36.408],[45.114,36.41],[45.085,36.431],[45.053,36.472],[45.031,36.526],[45.031,36.597],[45.035,36.658],[45.02,36.698],[44.981,36.738],[44.927,36.766],[44.88,36.799],[44.797,37.064],[44.765,37.135],[44.765,37.142],[44.768,37.156],[44.757,37.217],[44.797,37.269],[44.793,37.29],[44.714,37.358],[44.603,37.424],[44.574,37.436],[44.574,37.507],[44.577,37.561],[44.567,37.609],[44.545,37.637],[44.545,37.658],[44.588,37.71],[44.559,37.745],[44.397,37.83],[44.336,37.872],[44.225,37.88],[44.21,37.908],[44.228,37.967],[44.268,38.038],[44.329,38.109],[44.351,38.146],[44.372,38.21],[44.379,38.255],[44.448,38.318],[44.451,38.335],[44.43,38.358],[44.376,38.37],[44.318,38.375],[44.3,38.387],[44.289,38.42],[44.297,38.557],[44.279,38.641],[44.257,38.701],[44.271,38.837],[44.232,38.863],[44.171,38.934],[44.145,38.995],[44.16,39.017],[44.171,39.055],[44.181,39.108],[44.178,39.144],[44.12,39.18],[44.081,39.219],[44.073,39.26],[44.059,39.311],[44.034,39.351],[44.023,39.377],[44.045,39.392],[44.124,39.404],[44.239,39.397],[44.336,39.396],[44.39,39.422],[44.455,39.667],[44.516,39.731],[44.588,39.769],[44.725,39.682],[44.783,39.651],[44.819,39.651],[44.837,39.628],[44.999,39.424],[45.071,39.363],[45.114,39.312],[45.143,39.255],[45.189,39.215],[45.254,39.194],[45.337,39.139],[45.391,39.095],[45.481,39.007],[45.575,38.972],[45.92,38.908],[46.115,38.878],[46.169,38.87],[46.316,38.913],[46.489,38.906],[46.554,38.904],[46.784,39.087],[46.853,39.149],[46.989,39.18],[47.065,39.253],[47.187,39.34],[47.339,39.424],[47.475,39.498],[47.583,39.543],[47.774,39.649],[47.893,39.686],[47.997,39.684],[48.152,39.561],[48.282,39.448],[48.321,39.399],[48.257,39.356],[48.134,39.312],[48.113,39.281],[48.105,39.241],[48.109,39.203],[48.127,39.172],[48.275,39.099],[48.293,39.059],[48.293,39.019],[48.275,38.993],[48.242,38.979],[48.138,38.958],[48.051,38.936],[48.019,38.911],[47.994,38.884],[47.997,38.854],[48.023,38.819],[48.206,38.724],[48.224,38.689],[48.26,38.642],[48.307,38.613],[48.383,38.606],[48.419,38.587],[48.591,38.411],[48.635,38.399],[48.84,38.437],[48.869,38.436],[48.872,38.392],[48.901,38.144],[48.926,38.016],[48.959,37.891],[49.016,37.776],[49.081,37.668],[49.171,37.601],[49.373,37.519],[49.47,37.497],[49.725,37.481],[49.981,37.444],[50.129,37.406],[50.176,37.38],[50.215,37.34],[50.338,37.149],[50.532,37.014],[50.928,36.811],[51.119,36.743],[51.763,36.615],[52.192,36.622],[53.372,36.868],[53.768,36.931],[53.916,36.931],[53.826,36.882],[53.678,36.853],[53.768,36.818],[53.905,36.813],[53.97,36.818],[54.017,36.849],[54.024,36.901],[54.017,36.953],[53.952,37.182],[53.916,37.344]]]]}},{"type":"Feature","properties":{"name":"Egypt","side":"gulf"},"geometry":{"type":"Polygon","coordinates":[[[36.87,21.998],[36.542,21.996],[36.215,21.996],[35.887,21.996],[35.559,21.996],[35.232,21.996],[34.904,21.996],[34.573,21.996],[34.245,21.996],[33.918,21.996],[33.59,21.996],[33.263,21.996],[32.935,21.996],[32.607,21.996],[32.276,21.996],[31.949,21.996],[31.621,21.996],[31.434,21.996],[31.466,22.084],[31.488,22.149],[31.463,22.192],[31.401,22.202],[31.358,22.188],[31.261,22.003],[31.211,21.994],[31.092,21.994],[30.71,21.994],[30.329,21.996],[29.947,21.996],[29.565,21.996],[29.184,21.996],[28.802,21.996],[28.417,21.996],[28.035,21.996],[27.654,21.996],[27.272,21.996],[26.89,21.996],[26.509,21.996],[26.127,21.996],[25.746,21.996],[25.364,21.996],[24.979,21.996],[24.979,22.22],[24.979,22.445],[24.979,22.669],[24.979,22.893],[24.979,23.119],[24.979,23.343],[24.979,23.569],[24.979,23.793],[24.979,24.016],[24.979,24.242],[24.979,24.466],[24.979,24.69],[24.979,24.916],[24.979,25.14],[24.979,25.364],[24.979,25.589],[24.979,25.813],[24.979,26.037],[24.979,26.263],[24.979,26.487],[24.979,26.713],[24.979,26.936],[24.979,27.16],[24.979,27.386],[24.979,27.61],[24.979,27.834],[24.979,28.06],[24.979,28.284],[24.979,28.508],[24.979,28.733],[24.979,28.957],[24.979,29.181],[24.972,29.225],[24.918,29.376],[24.867,29.57],[24.81,29.81],[24.802,29.886],[24.712,30.131],[24.702,30.202],[24.727,30.25],[24.878,30.457],[24.921,30.558],[24.961,30.679],[24.975,30.776],[24.928,30.926],[24.878,31.061],[24.86,31.198],[24.853,31.335],[24.928,31.427],[25.022,31.514],[25.058,31.566],[25.112,31.627],[25.152,31.655],[25.227,31.533],[25.382,31.513],[25.893,31.62],[26.458,31.513],[26.768,31.471],[27.247,31.377],[27.538,31.212],[27.621,31.191],[27.83,31.195],[27.967,31.098],[28.514,31.051],[28.806,30.943],[28.971,30.856],[29.072,30.83],[29.158,30.834],[29.277,30.867],[29.428,30.928],[29.59,31.011],[29.929,31.228],[30.048,31.266],[30.127,31.256],[30.224,31.259],[30.264,31.316],[30.314,31.356],[30.343,31.403],[30.397,31.457],[30.57,31.473],[30.923,31.566],[30.883,31.523],[30.563,31.417],[30.699,31.403],[30.84,31.44],[31.002,31.462],[31.031,31.507],[31.052,31.592],[31.085,31.603],[31.193,31.587],[31.524,31.459],[31.607,31.455],[31.841,31.526],[31.887,31.542],[31.963,31.502],[32.136,31.341],[32.075,31.344],[31.891,31.483],[31.877,31.414],[31.772,31.292],[31.902,31.24],[32.01,31.221],[32.067,31.153],[32.103,31.092],[32.208,31.118],[32.283,31.2],[32.244,31.247],[32.215,31.294],[32.251,31.296],[32.323,31.256],[32.532,31.101],[32.604,31.068],[32.683,31.073],[32.856,31.118],[32.903,31.112],[33.129,31.169],[33.158,31.125],[33.194,31.084],[33.378,31.131],[33.666,31.131],[33.903,31.181],[34.177,31.304],[34.199,31.323],[34.213,31.292],[34.245,31.209],[34.328,30.995],[34.4,30.829],[34.49,30.596],[34.519,30.507],[34.53,30.447],[34.659,30.191],[34.735,29.981],[34.793,29.811],[34.868,29.565],[34.904,29.478],[34.85,29.433],[34.735,29.271],[34.616,28.758],[34.447,28.357],[34.429,28.107],[34.4,28.016],[34.317,27.89],[34.22,27.765],[34.044,27.829],[33.759,28.047],[33.594,28.256],[33.417,28.389],[33.248,28.568],[33.201,28.695],[33.205,28.778],[33.129,28.978],[33.075,29.073],[32.87,29.287],[32.813,29.4],[32.766,29.45],[32.723,29.521],[32.647,29.799],[32.564,29.974],[32.474,29.926],[32.489,29.851],[32.409,29.749],[32.359,29.631],[32.399,29.534],[32.564,29.386],[32.6,29.322],[32.64,29.183],[32.633,28.992],[32.658,28.928],[32.784,28.787],[32.831,28.704],[32.856,28.631],[32.899,28.565],[33.021,28.442],[33.201,28.209],[33.371,28.051],[33.497,27.975],[33.547,27.898],[33.558,27.702],[33.551,27.607],[33.659,27.431],[33.698,27.341],[33.803,27.268],[33.849,27.185],[33.893,27.049],[33.957,26.648],[34.051,26.551],[34.328,26.025],[34.566,25.692],[34.681,25.442],[34.854,25.14],[35.196,24.475],[35.397,24.27],[35.477,24.155],[35.624,24.067],[35.783,23.938],[35.631,23.951],[35.595,23.942],[35.541,23.921],[35.516,23.843],[35.505,23.779],[35.523,23.442],[35.563,23.272],[35.696,22.945],[35.797,22.848],[35.847,22.786],[35.912,22.739],[36.229,22.629],[36.416,22.393],[36.83,22.098],[36.87,22.017],[36.87,21.998]]]}},{"type":"Feature","properties":{"name":"Cyprus","side":"gulf"},"geometry":{"type":"Polygon","coordinates":[[[32.712,35.17],[32.719,35.146],[32.784,35.117],[32.87,35.089],[32.921,35.087],[32.985,35.117],[33.079,35.146],[33.191,35.174],[33.248,35.156],[33.327,35.153],[33.385,35.163],[33.425,35.141],[33.457,35.101],[33.464,35.005],[33.475,35],[33.525,35.038],[33.615,35.023],[33.677,35.018],[33.727,35.037],[33.756,35.04],[33.792,35.049],[33.831,35.068],[33.867,35.094],[33.903,35.085],[33.965,35.057],[34.004,35.064],[34.022,35.045],[34.051,34.988],[33.936,34.971],[33.824,34.965],[33.759,34.972],[33.698,34.971],[33.515,34.806],[33.414,34.75],[33.295,34.717],[33.176,34.698],[33.115,34.696],[33.061,34.676],[33.025,34.637],[33.025,34.599],[33.007,34.57],[32.942,34.577],[32.913,34.636],[32.867,34.662],[32.751,34.648],[32.694,34.65],[32.507,34.707],[32.449,34.729],[32.413,34.778],[32.316,34.953],[32.301,35.084],[32.391,35.051],[32.474,35.09],[32.557,35.156],[32.654,35.182],[32.712,35.17]]]}},{"type":"Feature","properties":{"name":"Bahrain","side":"gulf"},"geometry":{"type":"Polygon","coordinates":[[[50.608,25.883],[50.575,25.806],[50.543,25.834],[50.467,25.966],[50.489,26.058],[50.453,26.19],[50.471,26.228],[50.564,26.247],[50.586,26.24],[50.557,26.199],[50.611,26.124],[50.618,26.002],[50.608,25.883]]]}}]}